[{"OBJECT_NAME":"STARLINK-36105","OBJECT_ID":"2025-281C","EPOCH":"2026-03-09T03:58:20.583264","MEAN_MOTION":15.27596539,"ECCENTRICITY":0.000189,"INCLINATION":43.0051,"RA_OF_ASC_NODE":346.585,"ARG_OF_PERICENTER":259.7852,"MEAN_ANOMALY":100.2787,"EPHEMERIS_TYPE":0,"CLASSIFICATION_TYPE":"U","NORAD_CAT_ID":66850,"ELEMENT_SET_NO":999,"REV_AT_EPOCH":1610,"BSTAR":0.0011061971,"MEAN_MOTION_DOT":0.00030319,"MEAN_MOTION_DDOT":0},{"OBJECT_NAME":"CZ-6A DEB","OBJECT_ID":"2024-140ZB","EPOCH":"2026-03-09T13:53:53.181600","MEAN_MOTION":15.04943741,"ECCENTRICITY":0.0099448,"INCLINATION":89.0521,"RA_OF_ASC_NODE":283.407,"ARG_OF_PERICENTER":138.6562,"MEAN_ANOMALY":222.2259,"EPHEMERIS_TYPE":0,"CLASSIFICATION_TYPE":"U","NORAD_CAT_ID":61434,"ELEMENT_SET_NO":999,"REV_AT_EPOCH":8386,"BSTAR":0.0022399,"MEAN_MOTION_DOT":0.00035579,"MEAN_MOTION_DDOT":0}]
